{
    "links": {
        "self": "http://www.neowsapp.com/rest/v1/neo/3836103?api_key=iIulBulltgU6a56xZRHN4H3l9WmuAYTsLGpBGhQ2"
    },
    "id": "3836103",
    "neo_reference_id": "3836103",
    "name": "(2018 VW3)",
    "designation": "2018 VW3",
    "nasa_jpl_url": "http://ssd.jpl.nasa.gov/sbdb.cgi?sstr=3836103",
    "absolute_magnitude_h": 22.2,
    "estimated_diameter": {
        "kilometers": {
            "estimated_diameter_min": 0.096506147,
            "estimated_diameter_max": 0.2157943048
        },
        "meters": {
            "estimated_diameter_min": 96.5061469579,
            "estimated_diameter_max": 215.7943048444
        },
        "miles": {
            "estimated_diameter_min": 0.059966121,
            "estimated_diameter_max": 0.134088323
        },
        "feet": {
            "estimated_diameter_min": 316.6212271853,
            "estimated_diameter_max": 707.9865871058
        }
    },
    "is_potentially_hazardous_asteroid": false,
    "close_approach_data": [
        {
            "close_approach_date": "2018-11-06",
            "close_approach_date_full": "2018-Nov-06 14:09",
            "epoch_date_close_approach": 1541513340000,
            "relative_velocity": {
                "kilometers_per_second": "20.6654015573",
                "kilometers_per_hour": "74395.4456061137",
                "miles_per_hour": "46226.436743421"
            },
            "miss_distance": {
                "astronomical": "0.0783212279",
                "lunar": "30.4669576531",
                "kilometers": "11716688.869624573",
                "miles": "7280412.8663541874"
            },
            "orbiting_body": "Earth"
        },
        {
            "close_approach_date": "2198-11-29",
            "close_approach_date_full": "2198-Nov-29 13:32",
            "epoch_date_close_approach": 7223779920000,
            "relative_velocity": {
                "kilometers_per_second": "20.7777305101",
                "kilometers_per_hour": "74799.8298364111",
                "miles_per_hour": "46477.7053780745"
            },
            "miss_distance": {
                "astronomical": "0.3480778601",
                "lunar": "135.4022875789",
                "kilometers": "52071706.465117987",
                "miles": "32355858.0363507406"
            },
            "orbiting_body": "Earth"
        }
    ],
    "orbital_data": {
        "orbit_id": "2",
        "orbit_determination_date": "2018-11-21 06:27:07",
        "first_observation_date": "2018-11-05",
        "last_observation_date": "2018-11-09",
        "data_arc_in_days": 4,
        "observations_used": 39,
        "orbit_uncertainty": "9",
        "minimum_orbit_intersection": ".0149108",
        "jupiter_tisserand_invariant": "4.025",
        "epoch_osculation": "2458429.5",
        "eccentricity": ".3987829228067693",
        "semi_major_axis": "1.636313550124347",
        "inclination": "34.72374064604668",
        "ascending_node_longitude": "227.4492096225124",
        "orbital_period": "764.5364875731701",
        "perihelion_distance": ".9837796499774388",
        "perihelion_argument": "202.4659420413602",
        "aphelion_distance": "2.288847450271255",
        "perihelion_time": "2458447.312217360839",
        "mean_anomaly": "351.6126982110997",
        "mean_motion": ".4708735369095725",
        "equinox": "J2000",
        "orbit_class": {
            "orbit_class_type": "APO",
            "orbit_class_description": "Near-Earth asteroid orbits which cross the Earth’s orbit similar to that of 1862 Apollo",
            "orbit_class_range": "a (semi-major axis) > 1.0 AU; q (perihelion) < 1.017 AU"
        }
    },
    "is_sentry_object": false
}